{
	"ndm": {
		"omm": [
			{
				"header": {
					"CREATION_DATE": "",
					"ORIGINATOR": ""
				},
				"body": {
					"segment": {
						"metadata": {
							"OBJECT_NAME": "STARLINK-30769",
							"OBJECT_ID": "2023-162W",
							"CENTER_NAME": "EARTH",
							"REF_FRAME": "TEME",
							"TIME_SYSTEM": "UTC",
							"MEAN_ELEMENT_THEORY": "SGP4"
						},
						"data": {
							"meanElements": {
								"EPOCH": "2023-11-20T22:00:00.999936",
								"MEAN_MOTION": 15.38490453,
								"ECCENTRICITY": 0.0001723,
								"INCLINATION": 43,
								"RA_OF_ASC_NODE": 21.3413,
								"ARG_OF_PERICENTER": 278.3516,
								"MEAN_ANOMALY": 149.094
							},
							"tleParameters": {
								"EPHEMERIS_TYPE": 0,
								"CLASSIFICATION_TYPE": "U",
								"NORAD_CAT_ID": 58138,
								"ELEMENT_SET_NO": 999,
								"REV_AT_EPOCH": 599,
								"BSTAR": -0.061583,
								"MEAN_MOTION_DOT": -0.0215115,
								"MEAN_MOTION_DDOT": 0
							}
						}
					}
				}
			},
			{
				"header": {
					"CREATION_DATE": "",
					"ORIGINATOR": ""
				},
				"body": {
					"segment": {
						"metadata": {
							"OBJECT_NAME": "STARLINK-30775",
							"OBJECT_ID": "2023-162X",
							"CENTER_NAME": "EARTH",
							"REF_FRAME": "TEME",
							"TIME_SYSTEM": "UTC",
							"MEAN_ELEMENT_THEORY": "SGP4"
						},
						"data": {
							"meanElements": {
								"EPOCH": "2023-11-18T22:00:00.999936",
								"MEAN_MOTION": 15.47149628,
								"ECCENTRICITY": 0.0001386,
								"INCLINATION": 42.9995,
								"RA_OF_ASC_NODE": 32.9072,
								"ARG_OF_PERICENTER": 274.1398,
								"MEAN_ANOMALY": 189.2665
							},
							"tleParameters": {
								"EPHEMERIS_TYPE": 0,
								"CLASSIFICATION_TYPE": "U",
								"NORAD_CAT_ID": 58139,
								"ELEMENT_SET_NO": 999,
								"REV_AT_EPOCH": 560,
								"BSTAR": -0.046483,
								"MEAN_MOTION_DOT": -0.02138805,
								"MEAN_MOTION_DDOT": 0
							}
						}
					}
				}
			},
			{
				"header": {
					"CREATION_DATE": "",
					"ORIGINATOR": ""
				},
				"body": {
					"segment": {
						"metadata": {
							"OBJECT_NAME": "STARLINK-30780",
							"OBJECT_ID": "2023-162Y",
							"CENTER_NAME": "EARTH",
							"REF_FRAME": "TEME",
							"TIME_SYSTEM": "UTC",
							"MEAN_ELEMENT_THEORY": "SGP4"
						},
						"data": {
							"meanElements": {
								"EPOCH": "2023-11-20T22:00:00.999936",
								"MEAN_MOTION": 15.38945623,
								"ECCENTRICITY": 0.0001653,
								"INCLINATION": 42.9999,
								"RA_OF_ASC_NODE": 21.331,
								"ARG_OF_PERICENTER": 275.8769,
								"MEAN_ANOMALY": 155.8234
							},
							"tleParameters": {
								"EPHEMERIS_TYPE": 0,
								"CLASSIFICATION_TYPE": "U",
								"NORAD_CAT_ID": 58140,
								"ELEMENT_SET_NO": 999,
								"REV_AT_EPOCH": 599,
								"BSTAR": -0.060751,
								"MEAN_MOTION_DOT": -0.02153894,
								"MEAN_MOTION_DDOT": 0
							}
						}
					}
				}
			},
			{
				"header": {
					"CREATION_DATE": "",
					"ORIGINATOR": ""
				},
				"body": {
					"segment": {
						"metadata": {
							"OBJECT_NAME": "YAOGAN-39 04A",
							"OBJECT_ID": "2023-163A",
							"CENTER_NAME": "EARTH",
							"REF_FRAME": "TEME",
							"TIME_SYSTEM": "UTC",
							"MEAN_ELEMENT_THEORY": "SGP4"
						},
						"data": {
							"meanElements": {
								"EPOCH": "2023-11-21T03:25:26.148864",
								"MEAN_MOTION": 15.22278889,
								"ECCENTRICITY": 0.0005116,
								"INCLINATION": 34.9938,
								"RA_OF_ASC_NODE": 130.3738,
								"ARG_OF_PERICENTER": 159.5196,
								"MEAN_ANOMALY": 200.5724
							},
							"tleParameters": {
								"EPHEMERIS_TYPE": 0,
								"CLASSIFICATION_TYPE": "U",
								"NORAD_CAT_ID": 58141,
								"ELEMENT_SET_NO": 999,
								"REV_AT_EPOCH": 432,
								"BSTAR": 0.00047096,
								"MEAN_MOTION_DOT": 0.00011089,
								"MEAN_MOTION_DDOT": 0
							}
						}
					}
				}
			},
			{
				"header": {
					"CREATION_DATE": "",
					"ORIGINATOR": ""
				},
				"body": {
					"segment": {
						"metadata": {
							"OBJECT_NAME": "CZ-2D R/B",
							"OBJECT_ID": "2023-163B",
							"CENTER_NAME": "EARTH",
							"REF_FRAME": "TEME",
							"TIME_SYSTEM": "UTC",
							"MEAN_ELEMENT_THEORY": "SGP4"
						},
						"data": {
							"meanElements": {
								"EPOCH": "2023-11-20T20:29:55.185216",
								"MEAN_MOTION": 15.24777116,
								"ECCENTRICITY": 0.000587,
								"INCLINATION": 34.9942,
								"RA_OF_ASC_NODE": 131.8041,
								"ARG_OF_PERICENTER": 163.2979,
								"MEAN_ANOMALY": 196.793
							},
							"tleParameters": {
								"EPHEMERIS_TYPE": 0,
								"CLASSIFICATION_TYPE": "U",
								"NORAD_CAT_ID": 58142,
								"ELEMENT_SET_NO": 999,
								"REV_AT_EPOCH": 427,
								"BSTAR": 0.00087228,
								"MEAN_MOTION_DOT": 0.00022197,
								"MEAN_MOTION_DDOT": 0
							}
						}
					}
				}
			},
			{
				"header": {
					"CREATION_DATE": "",
					"ORIGINATOR": ""
				},
				"body": {
					"segment": {
						"metadata": {
							"OBJECT_NAME": "YAOGAN-39 04B",
							"OBJECT_ID": "2023-163C",
							"CENTER_NAME": "EARTH",
							"REF_FRAME": "TEME",
							"TIME_SYSTEM": "UTC",
							"MEAN_ELEMENT_THEORY": "SGP4"
						},
						"data": {
							"meanElements": {
								"EPOCH": "2023-11-21T03:18:52.972704",
								"MEAN_MOTION": 15.22178611,
								"ECCENTRICITY": 0.0014446,
								"INCLINATION": 34.9946,
								"RA_OF_ASC_NODE": 130.3371,
								"ARG_OF_PERICENTER": 160.1049,
								"MEAN_ANOMALY": 200.0231
							},
							"tleParameters": {
								"EPHEMERIS_TYPE": 0,
								"CLASSIFICATION_TYPE": "U",
								"NORAD_CAT_ID": 58143,
								"ELEMENT_SET_NO": 999,
								"REV_AT_EPOCH": 431,
								"BSTAR": 0.00040839,
								"MEAN_MOTION_DOT": 0.00009604,
								"MEAN_MOTION_DDOT": 0
							}
						}
					}
				}
			},
			{
				"header": {
					"CREATION_DATE": "",
					"ORIGINATOR": ""
				},
				"body": {
					"segment": {
						"metadata": {
							"OBJECT_NAME": "CZ-2D DEB",
							"OBJECT_ID": "2023-163D",
							"CENTER_NAME": "EARTH",
							"REF_FRAME": "TEME",
							"TIME_SYSTEM": "UTC",
							"MEAN_ELEMENT_THEORY": "SGP4"
						},
						"data": {
							"meanElements": {
								"EPOCH": "2023-11-20T18:40:50.710080",
								"MEAN_MOTION": 15.25647662,
								"ECCENTRICITY": 0.0005534,
								"INCLINATION": 34.9935,
								"RA_OF_ASC_NODE": 132.132,
								"ARG_OF_PERICENTER": 171.1671,
								"MEAN_ANOMALY": 188.9142
							},
							"tleParameters": {
								"EPHEMERIS_TYPE": 0,
								"CLASSIFICATION_TYPE": "U",
								"NORAD_CAT_ID": 58144,
								"ELEMENT_SET_NO": 999,
								"REV_AT_EPOCH": 426,
								"BSTAR": 0.0011908,
								"MEAN_MOTION_DOT": 0.00031158,
								"MEAN_MOTION_DDOT": 0
							}
						}
					}
				}
			},
			{
				"header": {
					"CREATION_DATE": "",
					"ORIGINATOR": ""
				},
				"body": {
					"segment": {
						"metadata": {
							"OBJECT_NAME": "YAOGAN-39 04C",
							"OBJECT_ID": "2023-163E",
							"CENTER_NAME": "EARTH",
							"REF_FRAME": "TEME",
							"TIME_SYSTEM": "UTC",
							"MEAN_ELEMENT_THEORY": "SGP4"
						},
						"data": {
							"meanElements": {
								"EPOCH": "2023-11-21T03:15:21.161376",
								"MEAN_MOTION": 15.22175321,
								"ECCENTRICITY": 0.0009423,
								"INCLINATION": 34.9938,
								"RA_OF_ASC_NODE": 130.3153,
								"ARG_OF_PERICENTER": 152.5894,
								"MEAN_ANOMALY": 207.5318
							},
							"tleParameters": {
								"EPHEMERIS_TYPE": 0,
								"CLASSIFICATION_TYPE": "U",
								"NORAD_CAT_ID": 58145,
								"ELEMENT_SET_NO": 999,
								"REV_AT_EPOCH": 432,
								"BSTAR": 0.00050429,
								"MEAN_MOTION_DOT": 0.00011851,
								"MEAN_MOTION_DDOT": 0
							}
						}
					}
				}
			},
			{
				"header": {
					"CREATION_DATE": "",
					"ORIGINATOR": ""
				},
				"body": {
					"segment": {
						"metadata": {
							"OBJECT_NAME": "SHENZHOU-17 (SZ-17)",
							"OBJECT_ID": "2023-164A",
							"CENTER_NAME": "EARTH",
							"REF_FRAME": "TEME",
							"TIME_SYSTEM": "UTC",
							"MEAN_ELEMENT_THEORY": "SGP4"
						},
						"data": {
							"meanElements": {
								"EPOCH": "2023-11-20T07:42:06.124608",
								"MEAN_MOTION": 15.62120953,
								"ECCENTRICITY": 0.0005534,
								"INCLINATION": 41.4713,
								"RA_OF_ASC_NODE": 285.2639,
								"ARG_OF_PERICENTER": 188.4107,
								"MEAN_ANOMALY": 171.6641
							},
							"tleParameters": {
								"EPHEMERIS_TYPE": 0,
								"CLASSIFICATION_TYPE": "U",
								"NORAD_CAT_ID": 58146,
								"ELEMENT_SET_NO": 999,
								"REV_AT_EPOCH": 14624,
								"BSTAR": 0.00032417,
								"MEAN_MOTION_DOT": 0.00029043,
								"MEAN_MOTION_DDOT": 0
							}
						}
					}
				}
			},
			{
				"header": {
					"CREATION_DATE": "",
					"ORIGINATOR": ""
				},
				"body": {
					"segment": {
						"metadata": {
							"OBJECT_NAME": "COSMOS 2570",
							"OBJECT_ID": "2023-165A",
							"CENTER_NAME": "EARTH",
							"REF_FRAME": "TEME",
							"TIME_SYSTEM": "UTC",
							"MEAN_ELEMENT_THEORY": "SGP4"
						},
						"data": {
							"meanElements": {
								"EPOCH": "2023-11-20T21:13:05.781216",
								"MEAN_MOTION": 13.96673414,
								"ECCENTRICITY": 0.0006866,
								"INCLINATION": 67.1501,
								"RA_OF_ASC_NODE": 52.3919,
								"ARG_OF_PERICENTER": 264.9675,
								"MEAN_ANOMALY": 95.0626
							},
							"tleParameters": {
								"EPHEMERIS_TYPE": 0,
								"CLASSIFICATION_TYPE": "U",
								"NORAD_CAT_ID": 58148,
								"ELEMENT_SET_NO": 999,
								"REV_AT_EPOCH": 346,
								"BSTAR": 0.0000281,
								"MEAN_MOTION_DOT": -3.6e-7,
								"MEAN_MOTION_DDOT": 0
							}
						}
					}
				}
			}
		]
	}
}